NORAD_CAT_ID,OBJECT_NAME,OBJECT_TYPE,EPOCH,MEAN_MOTION,ECCENTRICITY,INCLINATION,RA_OF_ASC_NODE,ARG_OF_PERICENTER,MEAN_ANOMALY,BSTAR,MEAN_MOTION_DOT,MEAN_MOTION_DDOT,TLE_LINE0,TLE_LINE1,TLE_LINE2,SEMIMAJOR_AXIS,PERIOD,APOGEE,PERIGEE,DECAYED
51134.0,STARLINK-3183,PAYLOAD,2022-10-22 18:43:07,15.08841919,0.0002515,53.2199,68.3469,32.6953,327.4194,1.6303e-05,-2.9e-07,0.0,0 STARLINK-3183,1 51134U 22005AG  22295.77994261 -.00000029  00000-0  16303-4 0  9997,2 51134  53.2199  68.3469 0002515  32.6953 327.4194 15.08841919 43713,6917.875,95.437,541.479,538.0,0.0
51134.0,STARLINK-3183,PAYLOAD,2022-10-23 09:01:34,15.08849988,0.0002554,53.2194,65.6716,32.1109,328.0039,9.2734e-05,1.188e-05,0.0,0 STARLINK-3183,1 51134U 22005AG  22296.37609265  .00001188  00000-0  92734-4 0  9999,2 51134  53.2194  65.6716 0002554  32.1109 328.0039 15.08849988 43803,6917.85,95.437,541.482,537.948,0.0
51134.0,STARLINK-3183,PAYLOAD,2022-10-23 15:23:07,15.08843856,0.0002552,53.2192,64.4822,29.8573,330.2564,1.4444e-05,-5.9e-07,0.0,0 STARLINK-3183,1 51134U 22005AG  22296.64105833 -.00000059  00000-0  14444-4 0  9990,2 51134  53.2192  64.4822 0002552  29.8573 330.2564 15.08843856 43842,6917.869000000002,95.437,541.499,537.9680000000002,0.0
51134.0,STARLINK-3183,PAYLOAD,2022-10-24 08:52:21,15.08845571,0.0002615,53.2189,61.21100000000001,28.8822,331.2314,0.00012921,1.769e-05,0.0,0 STARLINK-3183,1 51134U 22005AG  22297.36969044  .00001769  00000-0  12921-3 0  9997,2 51134  53.2189  61.2110 0002615  28.8822 331.2314 15.08845571 42848,6917.863,95.437,541.5369999999998,537.919,0.0
51134.0,STARLINK-3183,PAYLOAD,2022-10-24 16:49:19,15.08818985,0.0002597,53.2187,59.7235,24.4804,335.6311,-0.00012999,-2.356e-05,0.0,0 STARLINK-3183,1 51134U 22005AG  22297.70091620 -.00002356  00000-0 -12999-3 0  9991,2 51134  53.2187  59.7235 0002597  24.4804 335.6311 15.08818985 44001,6917.945,95.439,541.606,538.013,0.0
51134.0,STARLINK-3183,PAYLOAD,2022-10-25 08:43:10,15.08818519,0.0002023,53.2194,56.7513,12.9375,347.1669,-0.00013029,-2.36e-05,0.0,0 STARLINK-3183,1 51134U 22005AG  22298.36331979 -.00002360  00000-0 -13029-3 0  9998,2 51134  53.2194  56.7513 0002023  12.9375 347.1669 15.08818519 42997,6917.946,95.439,541.211,538.4119999999998,0.0
51134.0,STARLINK-3183,PAYLOAD,2022-10-26 11:44:43,15.08828842,0.0002667,53.2201,51.6934,31.2749,328.8401,0.00013878,1.92e-05,0.0,0 STARLINK-3183,1 51134U 22005AG  22299.48938878  .00001920  00000-0  13878-3 0  9994,2 51134  53.2201  51.6934 0002667  31.2749 328.8401 15.08828842 44273,6917.9140000000025,95.438,541.625,537.934,0.0
51134.0,STARLINK-3183,PAYLOAD,2022-10-26 16:30:52,15.0882845,0.0003002,53.2197,50.8016,22.0341,338.0780000000001,0.00013575,1.872e-05,0.0,0 STARLINK-3183,1 51134U 22005AG  22299.68811166  .00001872  00000-0  13575-3 0  9996,2 51134  53.2197  50.8016 0003002  22.0341 338.0780 15.08828450 43197,6917.916,95.438,541.857,537.7040000000002,0.0
51134.0,STARLINK-3183,PAYLOAD,2022-10-27 06:49:20,15.08843682,0.0002484,53.2205,48.1298,31.2222,328.8917,9.6033e-05,1.24e-05,0.0,0 STARLINK-3183,1 51134U 22005AG  22300.28426694  .00001240  00000-0  96033-4 0  9993,2 51134  53.2205  48.1298 0002484  31.2222 328.8917 15.08843682 43285,6917.869000000002,95.437,541.453,538.016,0.0
51134.0,STARLINK-3183,PAYLOAD,2022-10-28 13:01:39,15.08850233,0.0002467,53.2187,42.4761,22.2858,337.8241,0.00012997,1.781e-05,0.0,0 STARLINK-3183,1 51134U 22005AG  22301.54281759  .00001781  00000-0  12997-3 0  9990,2 51134  53.2187  42.4761 0002467  22.2858 337.8241 15.08850233 44586,6917.849,95.437,541.4209999999998,538.007,0.0
51134.0,STARLINK-3183,PAYLOAD,2022-10-28 14:37:02,15.08851502,0.0002577,53.219,42.179,22.8378,337.2729,0.00013959,1.935e-05,0.0,0 STARLINK-3183,1 51134U 22005AG  22301.60905660  .00001935  00000-0  13959-3 0  9991,2 51134  53.2190  42.1790 0002577  22.8378 337.2729 15.08851502 43487,6917.845,95.437,541.493,537.928,0.0
51134.0,STARLINK-3183,PAYLOAD,2022-10-29 00:09:21,15.08844806,0.0002586,53.2189,40.3954,24.5308,335.5807,7.0243e-05,8.3e-06,0.0,0 STARLINK-3183,1 51134U 22005AG  22302.00650129  .00000830  00000-0  70243-4 0  9996,2 51134  53.2189  40.3954 0002586  24.5308 335.5807 15.08844806 44656,6917.866,95.437,541.52,537.942,0.0
51134.0,STARLINK-3183,PAYLOAD,2022-10-29 16:03:13,15.08842068,0.0003135,53.221,37.4269,25.9961,334.1189,2.6955e-05,1.4e-06,0.0,0 STARLINK-3183,1 51134U 22005AG  22302.66890184  .00000140  00000-0  26955-4 0  9990,2 51134  53.2210  37.4269 0003135  25.9961 334.1189 15.08842068 43642,6917.874,95.437,541.908,537.57,0.0
51134.0,STARLINK-3183,PAYLOAD,2022-10-30 11:07:51,15.08838427,0.0002965,53.2205,33.8571,21.544,338.5676,-7.571e-05,-1.493e-05,0.0,0 STARLINK-3183,1 51134U 22005AG  22303.46378719 -.00001493  00000-0 -75710-4 0  9991,2 51134  53.2205  33.8571 0002965  21.5440 338.5676 15.08838427 43762,6917.885,95.438,541.8009999999998,537.6990000000002,0.0
51134.0,STARLINK-3183,PAYLOAD,2022-10-30 15:54:00,15.088411,0.0002675,53.2197,32.9612,29.4887,330.6256,-1.2308e-05,-4.84e-06,0.0,0 STARLINK-3183,1 51134U 22005AG  22303.66250320 -.00000484  00000-0 -12308-4 0  9993,2 51134  53.2197  32.9612 0002675  29.4887 330.6256 15.08841100 43790,6917.877,95.437,541.5930000000002,537.891,0.0
51134.0,STARLINK-3183,PAYLOAD,2022-10-31 09:23:15,15.08834571,0.0002712,53.2195,29.6889,29.3716,330.7429,-3.5131999999999995e-05,-8.48e-06,0.0,0 STARLINK-3183,1 51134U 22005AG  22304.39115041 -.00000848  00000-0 -35132-4 0  9998,2 51134  53.2195  29.6889 0002712  29.3716 330.7429 15.08834571 43909,6917.897,95.438,541.638,537.886,0.0
51134.0,STARLINK-3183,PAYLOAD,2022-10-31 12:34:01,15.08835794,0.0002918999999999,53.2193,29.0956,28.6446,331.4706,-2.117800000000001e-05,-6.26e-06,0.0,0 STARLINK-3183,1 51134U 22005AG  22304.52362992 -.00000626  00000-0 -21178-4 0  9991,2 51134  53.2193  29.0956 0002919  28.6446 331.4706 15.08835794 45037,6917.893,95.438,541.778,537.739,0.0
51134.0,STARLINK-3183,PAYLOAD,2022-11-01 09:14:02,15.08832816,0.0002906,53.2189,25.2311,19.6878,340.4226,-1.7854e-06,-3.17e-06,0.0,0 STARLINK-3183,1 51134U 22005AG  22305.38475592 -.00000317  00000-0 -17854-5 0  9991,2 51134  53.2189  25.2311 0002906  19.6878 340.4226 15.08832816 44050,6917.901999999999,95.438,541.778,537.757,0.0
51134.0,STARLINK-3183,PAYLOAD,2022-11-01 15:35:35,15.08834345,0.0002958,53.2194,24.0418,20.9569,339.1544,1.1473e-05,-1.06e-06,0.0,0 STARLINK-3183,1 51134U 22005AG  22305.64971599 -.00000106  00000-0  11473-4 0  9993,2 51134  53.2194  24.0418 0002958  20.9569 339.1544 15.08834345 44091,6917.898,95.438,541.809,537.716,0.0
51134.0,STARLINK-3183,PAYLOAD,2022-11-02 12:15:36,15.08830198,0.0002833,53.22,20.1762,24.3844,335.7282,4.6303e-05,4.48e-06,0.0,0 STARLINK-3183,1 51134U 22005AG  22306.51083940  .00000448  00000-0  46303-4 0  9992,2 51134  53.2200  20.1762 0002833  24.3844 335.7282 15.08830198 44222,6917.91,95.438,541.735,537.816,0.0
51134.0,STARLINK-3183,PAYLOAD,2022-11-03 08:55:36,15.0883747,0.0003063,53.2202,16.3076,23.0824,337.0306,0.00011635,1.564e-05,0.0,0 STARLINK-3183,1 51134U 22005AG  22307.37195410  .00001564  00000-0  11635-3 0  9992,2 51134  53.2202  16.3076 0003063  23.0824 337.0306 15.08837470 45468,6917.888000000001,95.438,541.872,537.634,0.0
51134.0,STARLINK-3183,PAYLOAD,2022-11-03 16:52:32,15.08845368,0.0003002,53.2202,14.8226,24.5815,335.532,0.0001779,2.544e-05,0.0,0 STARLINK-3183,1 51134U 22005AG  22307.70314853  .00002544  00000-0  17790-3 0  9990,2 51134  53.2202  14.8226 0003002  24.5815 335.5320 15.08845368 45517,6917.864000000001,95.437,541.806,537.6519999999998,0.0
51134.0,STARLINK-3183,PAYLOAD,2022-11-04 04:00:12,15.08858991,0.0002949,53.2205,12.741,19.6185,340.492,0.00019624,2.838e-05,0.0,0 STARLINK-3183,1 51134U 22005AG  22308.16681659  .00002838  00000-0  19624-3 0  9996,2 51134  53.2205  12.7410 0002949  19.6185 340.4920 15.08858991 45580,6917.821999999999,95.436,541.727,537.6469999999998,0.0
51134.0,STARLINK-3183,PAYLOAD,2022-11-04 10:21:45,15.08857742,0.0003273999999999,53.2195,11.5541,16.625,343.4849,0.00020154,2.922e-05,0.0,0 STARLINK-3183,1 51134U 22005AG  22308.43177522  .00002922  00000-0  20154-3 0  9999,2 51134  53.2195  11.5541 0003274  16.6250 343.4849 15.08857742 44510,6917.826,95.436,541.956,537.4259999999998,0.0
51134.0,STARLINK-3183,PAYLOAD,2022-11-05 03:51:00,15.08849376,0.0003246,53.2193,8.2839,17.8817,342.2289,-2.9155e-05,-7.53e-06,0.0,0 STARLINK-3183,1 51134U 22005AG  22309.16042252 -.00000753  00000-0 -29155-4 0  9994,2 51134  53.2193   8.2839 0003246  17.8817 342.2289 15.08849376 45736,6917.852,95.437,541.962,537.471,0.0
51134.0,STARLINK-3183,PAYLOAD,2022-11-05 10:12:33,15.088383300000002,0.0002993,53.2202,7.0932,12.3992,347.7073,-0.00012782,-2.322e-05,0.0,0 STARLINK-3183,1 51134U 22005AG  22309.42538990 -.00002322  00000-0 -12782-3 0  9993,2 51134  53.2202   7.0932 0002993  12.3992 347.7073 15.08838330 45773,6917.885,95.438,541.821,537.68,0.0
51134.0,STARLINK-3183,PAYLOAD,2022-11-05 13:23:20,15.08828697,0.0003424,53.2195,6.4997,14.8834,345.2259,-0.00021561,-3.718e-05,0.0,0 STARLINK-3183,1 51134U 22005AG  22309.55788020 -.00003718  00000-0 -21561-3 0  9993,2 51134  53.2195   6.4997 0003424  14.8834 345.2259 15.08828697 45796,6917.915,95.438,542.149,537.411,0.0
51134.0,STARLINK-3183,PAYLOAD,2022-11-05 21:20:16,15.08834019,0.0003133,53.2199,5.0122,18.2163,341.8941,-0.00018391,-3.214e-05,0.0,0 STARLINK-3183,1 51134U 22005AG  22309.88907642 -.00003214  00000-0 -18391-3 0  9990,2 51134  53.2199   5.0122 0003133  18.2163 341.8941 15.08834019 45846,6917.899,95.438,541.931,537.596,0.0
51134.0,STARLINK-3183,PAYLOAD,2022-11-06 10:03:20,15.08838975,0.0003405,53.2203,2.6356,18.2112,341.9002,-6.9232e-05,-1.391e-05,0.0,0 STARLINK-3183,1 51134U 22005AG  22310.41899102 -.00001391  00000-0 -69232-4 0  9997,2 51134  53.2203   2.6356 0003405  18.2112 341.9002 15.08838975 45923,6917.884,95.438,542.104,537.393,0.0
